{"type":"FeatureCollection","features":[{"type":"Feature","geometry":{"type":"Polygon","coordinates":[[[115.48626782300005,31.518355946000042],[115.51292789600006,31.51406773700006],[115.54575124300004,31.673215666000033],[115.58614920700006,31.795616995000046],[115.78308928000001,31.898566249000055],[115.9749796100001,31.924285600000076],[116.08102426500011,32.266521918000024],[115.99012884500007,32.486156720000054],[116.01790244500012,32.656377966000036],[115.86893495400011,32.60321853700003],[115.79066389900004,32.511710495000045],[115.6467461530001,32.53299976200003],[115.53312687900006,32.68613345000006],[115.34123655100007,32.70100747400005],[115.30083858700004,32.82627571100005],[115.34376142400004,32.93653534900005],[115.22761727800003,33.03184154300004],[115.04835131200002,33.05935528100002],[115.00037873100007,33.12915922700006],[115.03825182300011,33.20524573700004],[115.27811473300005,33.20313311500007],[115.4119329880001,33.29181933600006],[115.43970658800004,33.40360436700007],[115.42708222400006,33.48787532800003],[115.48767917000009,33.630947898000045],[115.73511669900006,33.69399275600006],[115.75784055300005,33.78427643800006],[115.71239284400008,33.96874650900003],[115.74521619000006,34.09429270100003],[115.82348724400003,34.161174663000054],[115.96740499200007,34.15908540300006],[116.05325066500006,34.12565021000006],[116.13657146500009,34.02317266700004],[116.23504150200006,33.884945911000045],[116.31836230200008,33.83043133000007],[116.5077277580001,33.89332968000008],[116.62639677600009,33.99805723400004],[116.73244143000011,34.05037266800008],[116.71476732200006,34.15072784500006],[116.68699372200001,34.194595796000044],[116.676894231,34.28852172200004],[116.65417037700001,34.35733409100004],[116.62134703100003,34.388593782000044],[116.53550135800003,34.39901108500004],[116.37643437500003,34.48022154300003],[116.28806382800008,34.57382777600003],[116.2628151020001,34.66940533800005],[116.2696651010001,34.706579856000076],[116.260033797,34.70748066600004],[116.08028455600004,34.70018323900007],[115.82952326800012,34.718425602000025],[115.69637568300004,34.67463717100003],[115.54769421100002,34.76765988400007],[115.5543515920001,34.91154709700004],[115.44561439600011,34.94065817000006],[115.27252253400002,35.07334629700006],[114.97737871900006,35.16047592700005],[114.94853007400002,35.23663787800007],[115.09499241900005,35.33264503200007],[115.16600446500001,35.43757892800005],[115.37460235000003,35.545987499000034],[115.42120400400006,35.665067874000044],[116.1623922330001,36.10555564600003],[116.15573485400012,36.19335884700007],[115.80955113100003,36.07507034900004],[115.47668216700004,35.91887239400006],[115.44783352200011,36.07507034900004],[115.54769421100002,36.13961345200005],[115.54944646400008,36.22023203300006],[115.29597072600006,36.28965130300003],[115.11176589500008,36.20226386400003],[114.88963654000008,36.311482891000026],[114.77044517800005,36.24596979800003],[114.65125381700011,36.26781360500007],[114.56998698100006,36.337672730000065],[114.244919632,36.37257882200004],[114.13656384900003,36.45106027800006],[113.813192447,36.46220698500008],[113.77898976600011,36.18914732200005],[113.70855850800001,35.90880487100003],[113.6652161930001,35.69789371400003],[113.01508149600011,35.36280771400004],[112.74419203900004,35.38047868600006],[112.63583625600006,35.30535033700005],[112.30535111900008,35.35397077600004],[112.19699533500011,35.28766292900008],[112.1428174450001,35.19031311500004],[111.92025466600006,35.17986319600004],[111.54924446600006,34.930083858000046],[111.28225581700008,34.91586892400005],[111.03607147900004,34.85329397600003],[110.84536530100007,34.728001232000054],[110.43970339000003,34.71986913400008],[110.43833766800009,34.58505345300006],[110.54983604800009,34.48122056400007],[110.54948177700004,34.35607206100008],[110.71591625900004,34.30516795300008],[110.72208049900007,34.01953498700004],[110.86385802100006,33.937748261000024],[110.93166466300005,33.77906278000006],[111.11659186500009,33.65087605200006],[111.10426338400003,33.393929369000034],[111.08785002600007,33.38212823400005],[111.22064423800003,33.265170141000056],[111.32716230700004,33.067025847000025],[111.38239389800009,32.97771495300003],[111.49680219400005,32.92143577000007],[111.55203378500005,32.86512077300006],[111.61515560400005,32.74242918600004],[111.80057594600004,32.732473801000026],[111.93470980900008,32.62621386500007],[112.04122787900008,32.602952661000074],[112.26215424300005,32.519827623000026],[112.41601367600003,32.47990026300005],[112.6172144730001,32.49986615900008],[112.7040069740001,32.49986615900008],[112.8341957240001,32.469915653000044],[113.11035368000012,32.52648046000007],[113.33917027300004,32.54311039600003],[113.56798686400009,32.409984751000025],[113.80074857000011,32.52980669300007],[113.89148618400009,32.50984744500005],[113.8875410710001,32.17320266100006],[114.120302777,31.885569884000063],[114.250491527,31.898968169000057],[114.32544868600007,31.945846806000077],[114.4853046930001,31.829946178000057],[114.62417269200012,31.857829242000037],[114.65194629200005,31.836381479000067],[114.68224476500006,31.71403407500003],[114.83626200200001,31.615179685000044],[115.1569208410001,31.59152501400007],[115.23519189600006,31.688256117000037],[115.29578884200009,31.68181050700008],[115.33618680600011,31.63882834700007],[115.37910964200012,31.535590096000078],[115.48626782300005,31.518355946000042]]]},"properties":{"featureKind":"modernProvinceBoundary","labelZh":"河南","sourceName":"Henan Province","temporalScope":"modern reference only; not a Tang dynasty boundary"}},{"type":"Feature","geometry":{"type":"Polygon","coordinates":[[[109.73082396200004,31.972288990000038],[109.74122661600006,32.139803431000075],[109.77278752600006,32.19657484000004],[109.62681832000004,32.409984751000025],[109.68599502500007,32.659433673000024],[109.89903116200009,32.719198223000035],[110.02527480000003,32.75238346000003],[110.24225605100008,32.77892274900006],[110.25014627700006,32.90818840400004],[110.04105525500006,33.030650851000075],[109.86747025300008,33.050493621000044],[109.86352514000004,33.20907473600005],[109.63865366000005,33.22887722300004],[109.62287320700005,33.33111863800008],[109.72544616100004,33.39372350700006],[109.84774468500007,33.39701725200007],[110.08445150400007,33.36407418400006],[110.41584105300007,33.291555523000056],[110.49868843800004,33.28825778700008],[110.66043809900009,33.37334068200005],[110.88235074200009,33.23423962500004],[111.08785002600007,33.38212823400005],[111.10426338400003,33.393929369000034],[111.11659186500009,33.65087605200006],[110.93166466300005,33.77906278000006],[110.86385802100006,33.937748261000024],[110.72208049900007,34.01953498700004],[110.71591625900004,34.30516795300008],[110.54948177700004,34.35607206100008],[110.54983604800009,34.48122056400007],[110.43833766800009,34.58505345300006],[110.43970339000003,34.71986913400008],[110.41887694000008,34.719451615000025],[110.37033354800008,34.816295480000065],[110.38767047500005,35.21953032700003],[110.68933297400008,35.63768155500003],[110.71013728400004,35.76720461900004],[110.54717018700006,36.17410431600007],[110.56797449700008,36.67629582200004],[110.46048556000005,36.76801149400006],[110.49515941000004,37.09783305700006],[110.73440897900008,37.39592957700006],[110.77948498500007,37.59675208400006],[110.85576745600008,37.77237099900003],[110.54717018700006,38.10053432700005],[110.54370280200004,38.23955969200006],[110.91471300300009,38.535802416000024],[110.93634948500005,38.64626894100007],[111.00736153100007,38.81937665100003],[111.05174405800005,39.04723597000003],[111.23717981200008,39.186481065000066],[111.27180531600004,39.502719666000075],[111.11343750800006,39.64571575400004],[110.75044563600005,39.38239811900007],[110.59224619300005,39.457398916000045],[110.35646400900004,39.44668945700005],[110.28364892300004,39.51627148600005],[110.20736645200009,39.41455119900007],[109.91957349100005,39.186481065000066],[109.85022579200006,38.94418579400008],[109.91610610800006,38.860536065000076],[109.90917133800008,38.79570731800004],[109.77394332100005,38.71999918600005],[109.56243283200007,38.70376556800005],[109.49308513200003,38.57376395700004],[109.38559619500006,38.511387984000066],[109.29544418300009,38.40821354800005],[109.17061832100006,38.27767711600006],[109.00418383900006,38.18234607000005],[108.85161889800008,37.96671130300007],[108.76146688600005,37.79977388000003],[108.68865179900007,37.75044137800006],[108.40432622400004,37.761407001000066],[108.30723944400006,37.912019421000025],[108.19281573600006,37.925696207000044],[108.09919634100004,37.86002444500008],[107.58255596900005,37.82168886900007],[107.58140655100004,37.825796156000024],[107.38599376200006,37.67128235500007],[107.31103660300005,37.45550514700005],[107.38204864900007,37.31444443400005],[107.34676546600008,37.21850670500004],[107.33470728600008,37.18569155500006],[107.42544489800008,37.00002723700004],[107.68582240100005,36.914910580000026],[107.94225478800007,36.84864298600007],[108.20657740400009,36.66215508000005],[108.32887592600008,36.703284567000026],[108.54980229000006,36.56081960300003],[108.65237524600008,36.532295014000056],[108.78256399700007,36.42761483900006],[108.76678354400008,36.08084951600006],[108.61292411000005,35.99152396900007],[108.57741808700007,35.751760509000064],[108.68788127000005,35.636416575000055],[108.64843013300003,35.43737803500005],[108.53796695100004,35.379500208000024],[108.24208342700007,35.40201319100004],[108.04088263100004,35.340891906000024],[107.88307808400003,35.41809004500004],[107.82390137900006,35.389149399000075],[107.82784649300004,35.22173348900003],[107.87913297000006,35.12176315000005],[107.28342080800007,35.03136177300007],[107.07827489800007,35.17337609200007],[106.86523876000007,35.20239398500007],[106.57724546300005,35.137895711000056],[106.55357478200006,35.034592118000035],[106.60486125800008,34.97642637700005],[106.57330035000007,34.81787695200006],[106.43916648400005,34.72389752600003],[106.42733114500004,34.636303292000036],[106.62064171300005,34.57785568200006],[106.76661091800008,34.490107167000076],[106.74294023700008,34.40552124300007],[106.62458682600004,34.24587668800007],[106.50623341700003,34.06959048400006],[106.55357478200006,33.96167901800004],[106.54568455300006,33.69622474800008],[106.13933784700004,33.702789092000046],[106.00914909700003,33.656828148000045],[105.89079568600005,33.58455418900007],[105.88685057300006,33.52208701100005],[106.01309421000008,33.45299181400003],[106.07227091400006,33.28495992500007],[105.99731375500005,33.18596616900004],[105.82575884100004,32.994325169000035],[105.81978364100007,32.98764285400006],[106.12750250600004,32.97109573300003],[106.17484387000007,32.86512077300006],[106.18667921000008,32.75570130400007],[106.32870330200006,32.71255969400005],[106.62458682600004,32.759019024000054],[106.88496432800008,32.83197758600005],[107.11772603500003,32.822032216000025],[107.22818921700008,32.58300967500003],[107.42149978500004,32.576361028000065],[107.46884115000006,32.61292248800004],[107.59902990000006,32.50984744500005],[107.76077956000006,32.48655605400006],[108.07638865400008,32.27332686900007],[108.40383308500009,32.37667259400007],[108.59319854200004,32.37334070300005],[108.69871478700009,32.29969266300003],[108.95614899900005,32.11975801800003],[109.23230695400008,32.07296826600003],[109.28359343200009,31.90566657900007],[109.72939127600006,31.94919436500004],[109.73082396200004,31.972288990000038]]]},"properties":{"featureKind":"modernProvinceBoundary","labelZh":"陕西","sourceName":"Shaanxi Province","temporalScope":"modern reference only; not a Tang dynasty boundary"}},{"type":"Feature","geometry":{"type":"Point","coordinates":[109.2,35.18]},"properties":{"featureKind":"modernProvinceLabel","labelZh":"陕西","temporalScope":"modern reference only"}},{"type":"Feature","geometry":{"type":"Point","coordinates":[112.18,35.18]},"properties":{"featureKind":"modernProvinceLabel","labelZh":"河南","temporalScope":"modern reference only"}}]}